TJS-24                  
1 69235U 26116A   26191.34174979 -.00000221  00000+0  00000+0 0  9998
2 69235   0.0650  96.7040 0000300 122.9334 281.9645  1.00271179   464
